#dP2022 11 23  0  0  0.00000000      96 __u+U ITR00 EXT  IAC
## 2237 259200.00000000   900.00000000 59906 0.0000000000000
+  118   C06C07C08C09C10C11C12C13C14C16C19C20C21C22C23C24C25
+        C26C27C28C29C30C32C33C34C35C36C37C38C39C40C41C42C43
+        C44C45C46E01E02E03E04E05E07E08E09E10E11E12E13E14E15
+        E18E19E21E24E25E26E27E30E31E33E34E36G01G02G03G04G05
+        G06G07G08G09G10G11G12G13G14G15G16G17G18G19G20G21G22
+        G23G24G25G26G27G29G30G31G32J02J03J04R01R02R03R04R05
+        R07R08R09R11R12R13R14R15R17R18R19R20R21R22R24R25  0
++         8  9 10  8  8  8  9  9  7  9  9  9 10  9  8  0  8
++        10  8 10  9 10  9  7  8  7  8  8 10 10  9  8 10  7
++         8 10  8  7  7  7  8  7  8  8  7 10  8  7  7  8  7
++         7  7  8  6  7  6  6  8  8  7  8  7  7  8  7  7  8
++         7  8  7  7  8  7  7  8  7  8  7  8  6  7  7  7  8
++         7  9  7  7  7  9  8  8  8  9 10  9 10  8  9  9  8
++         9  8  9  9  8 10  9  9  7  9  8 10  8  8  7 10  0
%c M  cc GPS ccc cccc cccc cccc cccc ccccc ccccc ccccc ccccc
%c cc cc ccc ccc cccc cccc cccc cccc ccccc ccccc ccccc ccccc
%f  0.0000000  0.000000000  0.00000000000  0.000000000000000
%f  0.0000000  0.000000000  0.00000000000  0.000000000000000
%i    0    0    0    0      0      0      0      0         0
%i    0    0    0    0      0      0      0      0         0
/* IAC                                ULTRA-RAPID PREDICTION
/* S/V CLOCKS ARE ALIGNED TO GNSS TIME                      
/* G:C1WC2W R:C1PC2P E:C1XC5X C:C2IC6I J:C1CC2S             
/* PCV:IGS14_2233 OL/AL:FES2004  NONE     YN ORB:CoN CLK:CoN
*  2022 11 23 17 30  0.00000000
PC06  -2862.111577  25903.158664 -33112.606589     -5.516661
PC07 -17104.721161  33380.001054  19177.746583    173.077068
PC08  -5426.901689  39986.705701  12566.876193    515.511945
PC09   5703.762466  28727.782980 -29754.902704   -799.841089
PC10  -9160.141527  33057.934573  24515.159175     63.442251
PC11   -532.490146  16141.054717  22835.958829   -275.594996
PC12 -18645.283857   6421.681528  19782.922903    314.422402
PC13    -24.471022  42075.257192   4669.416128    140.723760
PC14  -9407.967496  21204.294494 -15465.678781    202.253006
PC16  -8337.755531  22796.094008 -34283.596015    112.638047
PC19   -105.099546 -18360.575531  21035.343806   -910.791650
PC20  16178.145815 -20886.072004   9025.238162    828.411371
PC21 -23910.783850  10929.269675   9347.171020   -885.545769
PC22 -17086.897848  -5135.389036  21445.133547   -777.728795
PC23  14746.212254  16647.186213  16865.547246   -875.330656
PC24      0.000000      0.000000      0.000000   -767.649616
PC25   6100.635323  27179.360734   1881.601870     29.040049
PC26 -15535.132009   5273.632963 -22590.945960    -40.075586
PC27  24291.709116   -407.035635 -13736.505620     55.783646
PC28  25045.323065  12060.749836   2501.997974     39.314479
PC29 -11109.732738 -17711.668664 -18484.231484     44.427069
PC30  10098.738408 -13023.134885 -22520.172868      1.034417
PC32  23829.117118 -11057.016393  -9411.730618   -707.343179
PC33    127.689641  18418.585980 -20963.908873   -906.119511
PC34  -8916.456544  13615.379917  22663.152166     45.770038
PC35 -24859.602922 -12063.877293  -4023.089229    101.576808
PC36  -5038.723370 -27410.486919  -1256.689498   -819.048548
PC37  15951.520483  -3293.850483  22669.502274   -909.155174
PC38  -9926.355001  36489.862619  18869.821480     40.155428
PC39 -12131.246851  20935.787487 -34532.156553     -0.935183
PC40 -25200.244052  28417.455820  18102.332279     -8.728883
PC41  16719.454760   5572.775342 -21590.332442   -306.585554
PC42 -17022.803406  20650.503465  -7847.498347   -719.063313
PC43  10213.017988  17846.427111  18852.650787     26.501274
PC44 -24416.585647   1179.397166  13480.189609    123.141515
PC45 -14767.828120 -16275.858650 -17182.002850    -26.069327
PC46   7034.956166 -22786.126050  14454.113672    -14.964652
PE01  -7704.300230  28101.114222   5252.748497   -571.212846
PE02   7522.708682 -28084.375802  -5488.584235      4.372581
PE03   5024.354216 -17371.039025  23424.495535   -622.896709
PE04  16596.619594  12630.843721 -21004.860699  -1164.889392
PE05  24184.014870 -12003.732368  12123.743599   -121.808120
PE07 -28971.091850   -262.803243   6051.532658     -1.639729
PE08 -16595.729622 -12467.899135  21091.658547   -637.191068
PE09  28929.294914    308.390325  -6286.514943   -739.510381
PE10  21635.705116  18138.276391  -8916.053033   -492.892678
PE11  21818.020736   9176.057926 -17776.750370   1190.240565
PE12  17974.831592  23506.142592    521.241299   -292.935000
PE13 -21939.638526 -10017.485292  17167.010463    430.541605
PE14 -24027.503392  -6228.783600  -7521.548115     64.955797
PE15 -17886.862976 -23569.002547   -798.498428    705.516157
PE18  30527.068543  -4056.406757  -5393.214949   -709.125165
PE19  -8124.180686  17104.712095 -22754.780112  -3921.247640
PE21 -17315.536300  20837.190920 -11934.147662   -496.339182
PE24  17617.015701     58.325130  23772.494665   -963.548836
PE25  17415.940925 -20581.475949  12212.260674   -593.357887
PE26 -12616.633228  10150.587115  24786.046199  -1879.057868
PE27 -17855.098019   1134.155614 -23579.640512   -446.601118
PE30  -7326.546221 -19701.001019 -20839.093489  -1022.121788
PE31   7876.035719  19067.927363  21239.909524   -508.913882
PE33   3289.780468  23123.193493  18191.802583   -455.589748
PE34  -3477.089223 -23180.065335 -18067.688857    -16.098258
PE36  13093.806852  -9253.749307 -24874.662431   -465.159172
PG01 -18630.653898  -8912.561554  16584.959534    247.514631
PG02  18811.063187   4478.670198 -17487.400928   -636.484905
PG03 -16240.454068    986.467999  20849.101244   -374.008088
PG04 -26496.189140   -957.618181   2363.930770    -81.244772
PG05  10329.051673  12735.683634 -21042.049082   -105.420883
PG06   3167.468064  22153.630419  14308.544304    525.103448
PG07 -13690.818788   6859.572560 -21297.454385    283.742131
PG08 -22471.808510  -7001.305253 -12704.330492    -95.250362
PG09 -23860.659426   8053.533636  -8596.225913   -264.269136
PG10  11045.164977 -23944.432823   1107.932964    -13.136721
PG11  11596.969072  23739.690589   2919.977549    -44.517683
PG12  16115.611539    889.757288  20804.542099   -307.714687
PG13  15771.085413  13055.182908 -17197.021807    429.823282
PG14 -13301.170785  22891.636417  -1064.352407    -78.903482
PG15  23141.052322   5089.595018 -12726.921599     -9.953414
PG16  -5304.474959 -17208.479011 -19647.701598   -526.811311
PG17 -13811.400193  12909.091717  19130.233409    680.378744
PG18  11864.810660  -9160.736557 -21920.600180    -32.859041
PG19  -1481.757319  14727.826063  21816.183939    241.271234
PG20   2819.886595  22998.908199 -13165.730416    468.132401
PG21 -20510.311136 -14670.651763  10084.449951    155.417468
PG22  -1900.660359 -15396.488265  21992.887023    370.541495
PG23  16026.204245 -18702.482878  -9760.477457     -0.808944
PG24  20611.053204  11221.311186  12492.418043     46.510687
PG25  17838.981313 -10720.606122  16039.156116    395.454043
PG26   1516.404835 -24058.499555 -10861.071252    236.632098
PG27 -12506.110657 -12894.402954 -19915.683305    171.081460
PG29  25268.668227  -4392.924067  -7102.255919   -569.253597
PG30  -4837.040958  18005.387728 -18733.153876   -536.390774
PG31  -3733.925929 -22742.686832  12624.154809   -201.112455
PG32   9931.351299 -14680.031243  19870.855288   -305.997721
PJ02 -24622.234570  32280.108123  -6593.238625     -0.181466
PJ03 -26525.362555  22513.466968  28968.649966     -5.211039
PJ04 -33416.326375  25802.924748   4159.371556    113.563658
PR01    600.637307 -12566.257270  22185.395999     18.378167
PR02 -16717.375940  -1469.784473  19274.510309    -23.371348
PR03 -23115.854273   9723.227978   4886.768142     67.822846
PR04 -16701.306987  15108.371679 -11974.628151    165.998847
PR05  -1200.793414  12358.718428 -22281.966786    103.391277
PR07  23032.223817 -10116.324421  -4010.906993     44.830448
PR08  16413.901516 -15269.677004  12185.248534    -68.224767
PR09   9918.476059  11880.314634  20270.441272     89.199060
PR11   6068.890782 -21671.755225  12029.137160     19.108707
PR12  -2520.204385 -24487.238320  -6622.645908     23.104231
PR13  -9167.903607 -13579.717519 -19563.550246    -29.214233
PR14 -10803.750061   7098.931725 -21976.767181     24.081713
PR15  -5925.862311  22209.664663 -11041.189484     92.754662
PR17 -18820.085517  -2733.144730  16990.229641    580.726021
PR18  -5973.853176   8592.506645  23283.403017     53.433933
PR19   8485.777571  15626.102648  18298.812222   -212.029718
PR20  21069.258963  14345.331635   -161.793981    -82.696192
PR21  17920.688046   1789.828315 -18073.106830   -352.027831
PR22   5759.892257  -9208.511887 -23049.533693     21.016208
PR24 -21664.149874 -13418.482501    886.332875    128.313085
PR25  19042.843347   3833.579156 -16538.072065     47.079777
EOF
